ION SCV-004             
1 50993U 22002K   26068.68892644  .00006538  00000+0  23198-3 0  9998
2 50993  97.2961 128.2294 0007216   1.6783 358.4480 15.29369331230088
STARLINK-32780          
1 62746U 25014M   26068.23528148  .00024532  00000+0  89767-3 0  9997
2 62746  43.0027 157.3244 0001702 263.2687  96.7971 15.27593172 63182
